{
  "type": "FeatureCollection",
  "features": [
    {
      "type": "Feature",
      "properties": {
        "norad_id": 33412,
        "name": "COSMO-SKYMED 3",
        "group": "resource",
        "lat": 17.002376693349834,
        "lon": 10.31447562785226,
        "alt_km": 543.4341657377281,
        "timestamp": "2025-12-03T15:48:02.758387+00:00",
        "meta_object_name": "COSMO-SKYMED 3",
        "meta_object_id": "2008-054A",
        "meta_epoch": "2025-12-03T08:41:51.005760",
        "meta_mean_motion": 15.05209912,
        "meta_eccentricity": 0.00154151,
        "meta_inclination": 97.8469,
        "meta_ra_of_asc_node": 187.5968,
        "meta_arg_of_pericenter": 205.1681,
        "meta_mean_anomaly": 154.8796,
        "meta_ephemeris_type": 0,
        "meta_classification_type": "U",
        "meta_norad_cat_id": 33412,
        "meta_element_set_no": 999,
        "meta_rev_at_epoch": 92746,
        "meta_bstar": 0.00043702292,
        "meta_mean_motion_dot": 6.189e-05,
        "meta_mean_motion_ddot": 0,
        "tle_line1": "1 33412U 08054A   25337.36239590  .00006189  00000+0  43702-3 0  9999",
        "tle_line2": "2 33412  97.8469 187.5968 0015415 205.1681 154.8796 15.05209912927463"
      },
      "geometry": {
        "type": "Point",
        "coordinates": [
          10.31447562785226,
          17.002376693349834
        ]
      }
    },
    {
      "type": "Feature",
      "properties": {
        "norad_id": 33446,
        "name": "YAOGAN-4",
        "group": "resource",
        "lat": 16.93885439460324,
        "lon": 90.2765476999279,
        "alt_km": 631.5029805735794,
        "timestamp": "2025-12-03T15:48:02.758396+00:00",
        "meta_object_name": "YAOGAN-4",
        "meta_object_id": "2008-061A",
        "meta_epoch": "2025-12-03T06:58:13.276416",
        "meta_mean_motion": 14.82633768,
        "meta_eccentricity": 0.00144144,
        "meta_inclination": 97.917,
        "meta_ra_of_asc_node": 267.4833,
        "meta_arg_of_pericenter": 354.9105,
        "meta_mean_anomaly": 5.1959,
        "meta_ephemeris_type": 0,
        "meta_classification_type": "U",
        "meta_norad_cat_id": 33446,
        "meta_element_set_no": 999,
        "meta_rev_at_epoch": 91663,
        "meta_bstar": 0.0002872803,
        "meta_mean_motion_dot": 2.264e-05,
        "meta_mean_motion_ddot": 0,
        "tle_line1": "1 33446U 08061A   25337.29043144  .00002264  00000+0  28728-3 0  9995",
        "tle_line2": "2 33446  97.9170 267.4833 0014414 354.9105   5.1959 14.82633768916631"
      },
      "geometry": {
        "type": "Point",
        "coordinates": [
          90.2765476999279,
          16.93885439460324
        ]
      }
    },
    {
      "type": "Feature",
      "properties": {
        "norad_id": 33492,
        "name": "GOSAT (IBUKI)",
        "group": "resource",
        "lat": -11.887128313066308,
        "lon": 88.10084235819282,
        "alt_km": 673.3613289995656,
        "timestamp": "2025-12-03T15:48:02.758405+00:00",
        "meta_object_name": "GOSAT (IBUKI)",
        "meta_object_id": "2009-002A",
        "meta_epoch": "2025-12-03T06:02:13.929504",
        "meta_mean_motion": 14.67550956,
        "meta_eccentricity": 9.877e-05,
        "meta_inclination": 98.0767,
        "meta_ra_of_asc_node": 85.9869,
        "meta_arg_of_pericenter": 84.3385,
        "meta_mean_anomaly": 275.7932,
        "meta_ephemeris_type": 0,
        "meta_classification_type": "U",
        "meta_norad_cat_id": 33492,
        "meta_element_set_no": 999,
        "meta_rev_at_epoch": 90272,
        "meta_bstar": 0.00025866975,
        "meta_mean_motion_dot": 1.419e-05,
        "meta_mean_motion_ddot": 0,
        "tle_line1": "1 33492U 09002A   25337.25155011  .00001419  00000+0  25867-3 0  9997",
        "tle_line2": "2 33492  98.0767  85.9869 0000987  84.3385 275.7932 14.67550956902723"
      },
      "geometry": {
        "type": "Point",
        "coordinates": [
          88.10084235819282,
          -11.887128313066308
        ]
      }
    },
    {
      "type": "Feature",
      "properties": {
        "norad_id": 35681,
        "name": "DEIMOS-1",
        "group": "resource",
        "lat": -4.8030574757782,
        "lon": -41.96776980991469,
        "alt_km": 648.9588383974578,
        "timestamp": "2025-12-03T15:48:02.758415+00:00",
        "meta_object_name": "DEIMOS-1",
        "meta_object_id": "2009-041A",
        "meta_epoch": "2025-12-03T08:27:12.132864",
        "meta_mean_motion": 14.74929048,
        "meta_eccentricity": 0.00026756,
        "meta_inclination": 97.7146,
        "meta_ra_of_asc_node": 138.3931,
        "meta_arg_of_pericenter": 96.9204,
        "meta_mean_anomaly": 263.231,
        "meta_ephemeris_type": 0,
        "meta_classification_type": "U",
        "meta_norad_cat_id": 35681,
        "meta_element_set_no": 999,
        "meta_rev_at_epoch": 87801,
        "meta_bstar": 0.00016892482,
        "meta_mean_motion_dot": 1.087e-05,
        "meta_mean_motion_ddot": 0,
        "tle_line1": "1 35681U 09041A   25337.35222376  .00001087  00000+0  16892-3 0  9991",
        "tle_line2": "2 35681  97.7146 138.3931 0002675  96.9204 263.2310 14.74929048878016"
      },
      "geometry": {
        "type": "Point",
        "coordinates": [
          -41.96776980991469,
          -4.8030574757782
        ]
      }
    },
    {
      "type": "Feature",
      "properties": {
        "norad_id": 35682,
        "name": "DUBAISAT-1",
        "group": "resource",
        "lat": 48.17723093348188,
        "lon": -62.51018458848609,
        "alt_km": 648.1365209646365,
        "timestamp": "2025-12-03T15:48:02.758425+00:00",
        "meta_object_name": "DUBAISAT-1",
        "meta_object_id": "2009-041B",
        "meta_epoch": "2025-12-03T08:41:38.285952",
        "meta_mean_motion": 14.74559668,
        "meta_eccentricity": 0.00101676,
        "meta_inclination": 97.9784,
        "meta_ra_of_asc_node": 108.1807,
        "meta_arg_of_pericenter": 346.4691,
        "meta_mean_anomaly": 13.6243,
        "meta_ephemeris_type": 0,
        "meta_classification_type": "U",
        "meta_norad_cat_id": 35682,
        "meta_element_set_no": 999,
        "meta_rev_at_epoch": 87623,
        "meta_bstar": 0.00028341372,
        "meta_mean_motion_dot": 1.838e-05,
        "meta_mean_motion_ddot": 0,
        "tle_line1": "1 35682U 09041B   25337.36224868  .00001838  00000+0  28341-3 0  9997",
        "tle_line2": "2 35682  97.9784 108.1807 0010167 346.4691  13.6243 14.74559668876233"
      },
      "geometry": {
        "type": "Point",
        "coordinates": [
          -62.51018458848609,
          48.17723093348188
        ]
      }
    },
    {
      "type": "Feature",
      "properties": {
        "norad_id": 35931,
        "name": "OCEANSAT-2",
        "group": "resource",
        "lat": -54.946972496859026,
        "lon": 147.28530538621152,
        "alt_km": 913.8671413448201,
        "timestamp": "2025-12-03T15:48:02.758435+00:00",
        "meta_object_name": "OCEANSAT-2",
        "meta_object_id": "2009-051A",
        "meta_epoch": "2025-12-03T07:48:57.886272",
        "meta_mean_motion": 13.99626673,
        "meta_eccentricity": 0.00166046,
        "meta_inclination": 98.2231,
        "meta_ra_of_asc_node": 338.8808,
        "meta_arg_of_pericenter": 69.5066,
        "meta_mean_anomaly": 290.7881,
        "meta_ephemeris_type": 0,
        "meta_classification_type": "U",
        "meta_norad_cat_id": 35931,
        "meta_element_set_no": 999,
        "meta_rev_at_epoch": 85193,
        "meta_bstar": -7.3885464e-05,
        "meta_mean_motion_dot": -1.45e-06,
        "meta_mean_motion_ddot": 0,
        "tle_line1": "1 35931U 09051A   25337.32566998 -.00000145  00000+0 -73885-4 0  9990",
        "tle_line2": "2 35931  98.2231 338.8808 0016604  69.5066 290.7881 13.99626673851938"
      },
      "geometry": {
        "type": "Point",
        "coordinates": [
          147.28530538621152,
          -54.946972496859026
        ]
      }
    },
    {
      "type": "Feature",
      "properties": {
        "norad_id": 35946,
        "name": "WORLDVIEW-2 (WV-2)",
        "group": "resource",
        "lat": -15.090051353874557,
        "lon": -133.43513127652264,
        "alt_km": 772.0873700614275,
        "timestamp": "2025-12-03T15:48:02.758444+00:00",
        "meta_object_name": "WORLDVIEW-2 (WV-2)",
        "meta_object_id": "2009-055A",
        "meta_epoch": "2025-12-03T08:12:54.012384",
        "meta_mean_motion": 14.37645626,
        "meta_eccentricity": 0.00054428,
        "meta_inclination": 98.4771,
        "meta_ra_of_asc_node": 48.5579,
        "meta_arg_of_pericenter": 89.3976,
        "meta_mean_anomaly": 270.7835,
        "meta_ephemeris_type": 0,
        "meta_classification_type": "U",
        "meta_norad_cat_id": 35946,
        "meta_element_set_no": 999,
        "meta_rev_at_epoch": 84750,
        "meta_bstar": 0.0001147151,
        "meta_mean_motion_dot": 3.01e-06,
        "meta_mean_motion_ddot": 0,
        "tle_line1": "1 35946U 09055A   25337.34229181  .00000301  00000+0  11472-3 0  9997",
        "tle_line2": "2 35946  98.4771  48.5579 0005442  89.3976 270.7835 14.37645626847500"
      },
      "geometry": {
        "type": "Point",
        "coordinates": [
          -133.43513127652264,
          -15.090051353874557
        ]
      }
    }
  ]
}